KUIPER-00245            
1 67150U 25301T   26065.49992647 -.00001778  00000+0 -20432-3 0  9997
2 67150  51.9048  97.2353 0000990 353.1634   6.9315 14.79917034 13014
KUIPER-00246            
1 67151U 25301U   26065.83334490 -.01185425  00000+0 -90694-1 0  9990
2 67151  51.8887  81.3888 0004063  66.9373  20.9171 15.04715504  5706
KUIPER-00247            
1 67152U 25301V   26065.42263388  .00037857  00000+0  10422-2 0  9997
2 67152  51.8627  81.7578 0014294  45.4169 314.7981 15.36697638 13222
KUIPER-00248            
1 67153U 25301W   26065.25980404  .00035319  00000+0  95649-3 0  9990
2 67153  51.8664  82.2067 0010527  32.5863 327.5771 15.37285873 13376
KUIPER-00249            
1 67154U 25301X   26065.29741974  .00020502  00000+0  54889-3 0  9991
2 67154  51.8651  81.7006 0010517  33.3599 326.8049 15.37950128 13219
KUIPER-00250            
1 67155U 25301Y   26065.83334490 -.01146074  00000+0 -11148+0 0  9996
2 67155  51.9352  82.8956 0009247  43.5109  27.2607 14.94943908  5889
KUIPER-00251            
1 67156U 25301Z   26065.63950718  .00030575  00000+0  82423-3 0  9995
2 67156  51.8657  80.2438 0011415  34.8126 325.3605 15.37490918 13454
KUIPER-00252            
1 67157U 25301AA  26065.39738560  .00035035  00000+0  95073-3 0  9999
2 67157  51.8644  81.6135 0012101  40.4415 319.7469 15.37209724 13220
KUIPER-00261            
1 67158U 25301AB  26065.83334490 -.01637764  00000+0 -17316+0 0  9993
2 67158  51.8966  83.1803 0010560  52.2747 102.0558 14.92273173  5517
KUIPER-00265            
1 67159U 25301AC  26065.49723969  .00005063  00000+0  69260-3 0  9996
2 67159  51.9015  99.7289 0001008  35.0563 325.0466 14.79937915 13012
KUIPER-00159            
1 67764U 26030A   26065.83401967  .00044355  00000+0  12641-2 0  9994
2 67764  51.8845 232.9374 0004918  36.1090 324.0228 15.35631269  4651
KUIPER-00160            
1 67765U 26030B   26065.83537391  .00044310  00000+0  12695-2 0  9996
2 67765  51.8811 232.9376 0005144  46.6590 313.4824 15.35465242  4650
KUIPER-00177            
1 67766U 26030C   26065.82229179  .00038527  00000+0  10734-2 0  9993
2 67766  51.8825 232.8582 0001229  16.9168 343.1860 15.36411875  4659
KUIPER-00178            
1 67767U 26030D   26065.83712752  .00036397  00000+0  10472-2 0  9991
2 67767  51.8835 232.9539 0006370  38.3693 321.7745 15.35418602  4655
KUIPER-00180            
1 67768U 26030E   26065.80559138 -.00006253  00000+0 -18731-3 0  9993
2 67768  51.8812 233.4755 0014152  59.3115 300.9262 15.31944106  4647
KUIPER-00197            
1 67769U 26030F   26065.82455468  .00050622  00000+0  14103-2 0  9992
2 67769  51.8826 232.8735 0001404  50.8182 309.2928 15.36290972  4652
KUIPER-00198            
1 67770U 26030G   26065.82975120  .00036017  00000+0  10202-2 0  9994
2 67770  51.8808 232.9016 0003393  39.2395 320.8836 15.35924826  4651
