[{"OBJECT_NAME":"KUIPER-00245","OBJECT_ID":"2025-301T","EPOCH":"2026-03-06T11:59:53.647008","MEAN_MOTION":14.79917034,"ECCENTRICITY":9.908e-5,"INCLINATION":51.9048,"RA_OF_ASC_NODE":97.2353,"ARG_OF_PERICENTER":353.1634,"MEAN_ANOMALY":6.9315,"EPHEMERIS_TYPE":0,"CLASSIFICATION_TYPE":"U","NORAD_CAT_ID":67150,"ELEMENT_SET_NO":999,"REV_AT_EPOCH":1301,"BSTAR":-0.00020431854,"MEAN_MOTION_DOT":-1.778e-5,"MEAN_MOTION_DDOT":0},{"OBJECT_NAME":"KUIPER-00246","OBJECT_ID":"2025-301U","EPOCH":"2026-03-06T20:00:00.999360","MEAN_MOTION":15.04715504,"ECCENTRICITY":0.0004063,"INCLINATION":51.8887,"RA_OF_ASC_NODE":81.3888,"ARG_OF_PERICENTER":66.9373,"MEAN_ANOMALY":20.9171,"EPHEMERIS_TYPE":0,"CLASSIFICATION_TYPE":"U","NORAD_CAT_ID":67151,"ELEMENT_SET_NO":999,"REV_AT_EPOCH":570,"BSTAR":-0.090694,"MEAN_MOTION_DOT":-0.01185425,"MEAN_MOTION_DDOT":0},{"OBJECT_NAME":"KUIPER-00247","OBJECT_ID":"2025-301V","EPOCH":"2026-03-06T10:08:35.567232","MEAN_MOTION":15.36697638,"ECCENTRICITY":0.00142949,"INCLINATION":51.8627,"RA_OF_ASC_NODE":81.7578,"ARG_OF_PERICENTER":45.4169,"MEAN_ANOMALY":314.7981,"EPHEMERIS_TYPE":0,"CLASSIFICATION_TYPE":"U","NORAD_CAT_ID":67152,"ELEMENT_SET_NO":999,"REV_AT_EPOCH":1322,"BSTAR":0.0010421788,"MEAN_MOTION_DOT":0.00037857,"MEAN_MOTION_DDOT":0},{"OBJECT_NAME":"KUIPER-00248","OBJECT_ID":"2025-301W","EPOCH":"2026-03-06T06:14:07.069056","MEAN_MOTION":15.37285873,"ECCENTRICITY":0.00105274,"INCLINATION":51.8664,"RA_OF_ASC_NODE":82.2067,"ARG_OF_PERICENTER":32.5863,"MEAN_ANOMALY":327.5771,"EPHEMERIS_TYPE":0,"CLASSIFICATION_TYPE":"U","NORAD_CAT_ID":67153,"ELEMENT_SET_NO":999,"REV_AT_EPOCH":1337,"BSTAR":0.00095648517,"MEAN_MOTION_DOT":0.00035319,"MEAN_MOTION_DDOT":0},{"OBJECT_NAME":"KUIPER-00249","OBJECT_ID":"2025-301X","EPOCH":"2026-03-06T07:08:17.065536","MEAN_MOTION":15.37950128,"ECCENTRICITY":0.00105179,"INCLINATION":51.8651,"RA_OF_ASC_NODE":81.7006,"ARG_OF_PERICENTER":33.3599,"MEAN_ANOMALY":326.8049,"EPHEMERIS_TYPE":0,"CLASSIFICATION_TYPE":"U","NORAD_CAT_ID":67154,"ELEMENT_SET_NO":999,"REV_AT_EPOCH":1321,"BSTAR":0.00054888566,"MEAN_MOTION_DOT":0.00020502,"MEAN_MOTION_DDOT":0},{"OBJECT_NAME":"KUIPER-00250","OBJECT_ID":"2025-301Y","EPOCH":"2026-03-06T20:00:00.999360","MEAN_MOTION":14.94943908,"ECCENTRICITY":0.0009247,"INCLINATION":51.9352,"RA_OF_ASC_NODE":82.8956,"ARG_OF_PERICENTER":43.5109,"MEAN_ANOMALY":27.2607,"EPHEMERIS_TYPE":0,"CLASSIFICATION_TYPE":"U","NORAD_CAT_ID":67155,"ELEMENT_SET_NO":999,"REV_AT_EPOCH":588,"BSTAR":-0.11148,"MEAN_MOTION_DOT":-0.01146074,"MEAN_MOTION_DDOT":0},{"OBJECT_NAME":"KUIPER-00251","OBJECT_ID":"2025-301Z","EPOCH":"2026-03-06T15:20:53.420352","MEAN_MOTION":15.37490918,"ECCENTRICITY":0.00114152,"INCLINATION":51.8657,"RA_OF_ASC_NODE":80.2438,"ARG_OF_PERICENTER":34.8126,"MEAN_ANOMALY":325.3605,"EPHEMERIS_TYPE":0,"CLASSIFICATION_TYPE":"U","NORAD_CAT_ID":67156,"ELEMENT_SET_NO":999,"REV_AT_EPOCH":1345,"BSTAR":0.00082423358,"MEAN_MOTION_DOT":0.00030575,"MEAN_MOTION_DDOT":0},{"OBJECT_NAME":"KUIPER-00252","OBJECT_ID":"2025-301AA","EPOCH":"2026-03-06T09:32:14.115840","MEAN_MOTION":15.37209724,"ECCENTRICITY":0.00121015,"INCLINATION":51.8644,"RA_OF_ASC_NODE":81.6135,"ARG_OF_PERICENTER":40.4415,"MEAN_ANOMALY":319.7469,"EPHEMERIS_TYPE":0,"CLASSIFICATION_TYPE":"U","NORAD_CAT_ID":67157,"ELEMENT_SET_NO":999,"REV_AT_EPOCH":1322,"BSTAR":0.00095073353,"MEAN_MOTION_DOT":0.00035035,"MEAN_MOTION_DDOT":0},{"OBJECT_NAME":"KUIPER-00261","OBJECT_ID":"2025-301AB","EPOCH":"2026-03-06T20:00:00.999360","MEAN_MOTION":14.92273173,"ECCENTRICITY":0.001056,"INCLINATION":51.8966,"RA_OF_ASC_NODE":83.1803,"ARG_OF_PERICENTER":52.2747,"MEAN_ANOMALY":102.0558,"EPHEMERIS_TYPE":0,"CLASSIFICATION_TYPE":"U","NORAD_CAT_ID":67158,"ELEMENT_SET_NO":999,"REV_AT_EPOCH":551,"BSTAR":-0.17316,"MEAN_MOTION_DOT":-0.01637764,"MEAN_MOTION_DDOT":0},{"OBJECT_NAME":"KUIPER-00265","OBJECT_ID":"2025-301AC","EPOCH":"2026-03-06T11:56:01.509216","MEAN_MOTION":14.79937915,"ECCENTRICITY":0.00010089,"INCLINATION":51.9015,"RA_OF_ASC_NODE":99.7289,"ARG_OF_PERICENTER":35.0563,"MEAN_ANOMALY":325.0466,"EPHEMERIS_TYPE":0,"CLASSIFICATION_TYPE":"U","NORAD_CAT_ID":67159,"ELEMENT_SET_NO":999,"REV_AT_EPOCH":1301,"BSTAR":0.00069259767,"MEAN_MOTION_DOT":5.063e-5,"MEAN_MOTION_DDOT":0},{"OBJECT_NAME":"KUIPER-00159","OBJECT_ID":"2026-030A","EPOCH":"2026-03-06T20:00:59.299488","MEAN_MOTION":15.35631269,"ECCENTRICITY":0.0004918,"INCLINATION":51.8845,"RA_OF_ASC_NODE":232.9374,"ARG_OF_PERICENTER":36.109,"MEAN_ANOMALY":324.0228,"EPHEMERIS_TYPE":0,"CLASSIFICATION_TYPE":"U","NORAD_CAT_ID":67764,"ELEMENT_SET_NO":999,"REV_AT_EPOCH":465,"BSTAR":0.0012641,"MEAN_MOTION_DOT":0.00044355,"MEAN_MOTION_DDOT":0},{"OBJECT_NAME":"KUIPER-00160","OBJECT_ID":"2026-030B","EPOCH":"2026-03-06T20:02:56.305824","MEAN_MOTION":15.35465242,"ECCENTRICITY":0.0005144,"INCLINATION":51.8811,"RA_OF_ASC_NODE":232.9376,"ARG_OF_PERICENTER":46.659,"MEAN_ANOMALY":313.4824,"EPHEMERIS_TYPE":0,"CLASSIFICATION_TYPE":"U","NORAD_CAT_ID":67765,"ELEMENT_SET_NO":999,"REV_AT_EPOCH":465,"BSTAR":0.0012695,"MEAN_MOTION_DOT":0.0004431,"MEAN_MOTION_DDOT":0},{"OBJECT_NAME":"KUIPER-00177","OBJECT_ID":"2026-030C","EPOCH":"2026-03-06T19:44:06.010656","MEAN_MOTION":15.36411875,"ECCENTRICITY":0.0001229,"INCLINATION":51.8825,"RA_OF_ASC_NODE":232.8582,"ARG_OF_PERICENTER":16.9168,"MEAN_ANOMALY":343.186,"EPHEMERIS_TYPE":0,"CLASSIFICATION_TYPE":"U","NORAD_CAT_ID":67766,"ELEMENT_SET_NO":999,"REV_AT_EPOCH":465,"BSTAR":0.0010734,"MEAN_MOTION_DOT":0.00038527,"MEAN_MOTION_DDOT":0},{"OBJECT_NAME":"KUIPER-00178","OBJECT_ID":"2026-030D","EPOCH":"2026-03-06T20:05:27.817728","MEAN_MOTION":15.35418602,"ECCENTRICITY":0.000637,"INCLINATION":51.8835,"RA_OF_ASC_NODE":232.9539,"ARG_OF_PERICENTER":38.3693,"MEAN_ANOMALY":321.7745,"EPHEMERIS_TYPE":0,"CLASSIFICATION_TYPE":"U","NORAD_CAT_ID":67767,"ELEMENT_SET_NO":999,"REV_AT_EPOCH":465,"BSTAR":0.0010472,"MEAN_MOTION_DOT":0.00036397,"MEAN_MOTION_DDOT":0},{"OBJECT_NAME":"KUIPER-00180","OBJECT_ID":"2026-030E","EPOCH":"2026-03-06T19:20:03.095232","MEAN_MOTION":15.31944106,"ECCENTRICITY":0.0014152,"INCLINATION":51.8812,"RA_OF_ASC_NODE":233.4755,"ARG_OF_PERICENTER":59.3115,"MEAN_ANOMALY":300.9262,"EPHEMERIS_TYPE":0,"CLASSIFICATION_TYPE":"U","NORAD_CAT_ID":67768,"ELEMENT_SET_NO":999,"REV_AT_EPOCH":464,"BSTAR":-0.00018731,"MEAN_MOTION_DOT":-6.253e-5,"MEAN_MOTION_DDOT":0},{"OBJECT_NAME":"KUIPER-00197","OBJECT_ID":"2026-030F","EPOCH":"2026-03-06T19:47:21.524352","MEAN_MOTION":15.36290972,"ECCENTRICITY":0.0001404,"INCLINATION":51.8826,"RA_OF_ASC_NODE":232.8735,"ARG_OF_PERICENTER":50.8182,"MEAN_ANOMALY":309.2928,"EPHEMERIS_TYPE":0,"CLASSIFICATION_TYPE":"U","NORAD_CAT_ID":67769,"ELEMENT_SET_NO":999,"REV_AT_EPOCH":465,"BSTAR":0.0014103,"MEAN_MOTION_DOT":0.00050622,"MEAN_MOTION_DDOT":0},{"OBJECT_NAME":"KUIPER-00198","OBJECT_ID":"2026-030G","EPOCH":"2026-03-06T19:54:50.503680","MEAN_MOTION":15.35924826,"ECCENTRICITY":0.0003393,"INCLINATION":51.8808,"RA_OF_ASC_NODE":232.9016,"ARG_OF_PERICENTER":39.2395,"MEAN_ANOMALY":320.8836,"EPHEMERIS_TYPE":0,"CLASSIFICATION_TYPE":"U","NORAD_CAT_ID":67770,"ELEMENT_SET_NO":999,"REV_AT_EPOCH":465,"BSTAR":0.0010202,"MEAN_MOTION_DOT":0.00036017,"MEAN_MOTION_DDOT":0}]
